     2              NAVIGATION DATA                         RINEX VERSION / TYPE
CCRINEXN V1.6.0 UX  CDDIS               24-MAR-21 19:31     PGM / RUN BY / DATE 
IGS BROADCAST EPHEMERIS FILE                                COMMENT             
    0.1118D-07  0.7451D-08 -0.5960D-07 -0.5960D-07          ION ALPHA           
    0.9011D+05  0.1638D+05 -0.1966D+06 -0.6554D+05          ION BETA            
   -0.186264514923D-08-0.177635683940D-14   405504     2150 DELTA-UTC: A0,A1,T,W
    18                                                      LEAP SECONDS        
                                                            END OF HEADER       
25 21  3 23  6  0  0.0 0.104246195406D-03 0.738964445190D-11 0.000000000000D+00
    0.880000000000D+02 0.415937500000D+02 0.421624705218D-08-0.292074119961D+01
    0.213459134102D-05 0.992413365748D-02 0.835955142975D-05 0.515365500450D+04
    0.194400000000D+06 0.540167093277D-07 0.186856152095D+01-0.104308128357D-06
    0.961480868738D+00 0.217718750000D+03 0.955860327237D+00-0.772675042160D-08
   -0.273225666660D-09 0.100000000000D+01 0.215000000000D+04 0.000000000000D+00
    0.200000000000D+01 0.000000000000D+00 0.558793544769D-08 0.880000000000D+02
    0.187218000000D+06 0.400000000000D+01 0.000000000000D+00 0.000000000000D+00
26 21  3 23  6  0  0.0 0.619385391474D-04 0.534328137292D-11 0.000000000000D+00
    0.640000000000D+02 0.397500000000D+02 0.477448459073D-08 0.269548975033D+01
    0.203400850296D-05 0.578526442405D-02 0.874511897564D-05 0.515377711487D+04
    0.194400000000D+06-0.707805156708D-07 0.182768405541D+01-0.596046447754D-07
    0.942421220061D+00 0.201187500000D+03 0.297798024963D+00-0.809176562595D-08
   -0.359657838335D-09 0.100000000000D+01 0.215000000000D+04 0.000000000000D+00
    0.200000000000D+01 0.000000000000D+00 0.698491930962D-08 0.640000000000D+02
    0.187257000000D+06 0.400000000000D+01 0.000000000000D+00 0.000000000000D+00
27 21  3 23  6  0  0.0-0.991527922452D-04-0.704858393874D-11 0.000000000000D+00
    0.840000000000D+02 0.797500000000D+02 0.403945397376D-08 0.906664340838D+00
    0.407546758652D-05 0.927012600005D-02 0.661052763462D-05 0.515368503761D+04
    0.194400000000D+06-0.633299350738D-07 0.291658895973D+01 0.745058059692D-07
    0.976676895176D+00 0.259906250000D+03 0.592094258531D+00-0.805783564120D-08
    0.775032283206D-10 0.100000000000D+01 0.215000000000D+04 0.000000000000D+00
    0.200000000000D+01 0.000000000000D+00 0.186264514923D-08 0.840000000000D+02
    0.190819000000D+06 0.400000000000D+01 0.000000000000D+00 0.000000000000D+00
28 21  3 23  6  0  0.0 0.598030630499D-03-0.568434188608D-11 0.000000000000D+00
    0.590000000000D+02 0.325625000000D+02 0.402873924173D-08 0.165214998531D+01
    0.158697366715D-05 0.177644549403D-01 0.848248600960D-05 0.515366645432D+04
    0.194400000000D+06 0.350177288055D-06 0.196361093367D+01-0.307336449623D-06
    0.973357702290D+00 0.218906250000D+03-0.134724006895D+01-0.767781981201D-08
   -0.201079804352D-09 0.100000000000D+01 0.215000000000D+04 0.000000000000D+00
    0.200000000000D+01 0.000000000000D+00-0.111758708954D-07 0.590000000000D+02
    0.187218000000D+06 0.400000000000D+01 0.000000000000D+00 0.000000000000D+00
29 21  3 23  6  0  0.0-0.316835939884D-03-0.682121026330D-11 0.000000000000D+00
    0.820000000000D+02 0.666875000000D+02 0.384301721995D-08 0.106833086333D+01
    0.351667404175D-05 0.162988423836D-02 0.564195215702D-05 0.515367185211D+04
    0.194400000000D+06 0.447034835815D-07 0.298917523608D+01-0.633299350738D-07
    0.984668361675D+00 0.283375000000D+03 0.211923301221D+01-0.790961518151D-08
    0.228580949885D-09 0.100000000000D+01 0.215000000000D+04 0.000000000000D+00
    0.200000000000D+01 0.000000000000D+00-0.102445483208D-07 0.820000000000D+02
    0.187218000000D+06 0.400000000000D+01 0.000000000000D+00 0.000000000000D+00
30 21  3 23  6  0  0.0-0.402402598411D-03-0.545696821064D-11 0.000000000000D+00
    0.106000000000D+03 0.132500000000D+02 0.519878797896D-08-0.197340850566D+01
    0.564381480217D-06 0.499065173790D-02 0.653788447380D-05 0.515372514915D+04
    0.194400000000D+06-0.223517417908D-07 0.849100240662D+00-0.633299350738D-07
    0.937153964499D+00 0.240843750000D+03-0.282829985676D+01-0.827605901679D-08
   -0.117862052285D-09 0.100000000000D+01 0.215000000000D+04 0.000000000000D+00
    0.200000000000D+01 0.000000000000D+00 0.372529029846D-08 0.106000000000D+03
    0.187218000000D+06 0.400000000000D+01 0.000000000000D+00 0.000000000000D+00
31 21  3 23  6  0  0.0-0.107224564999D-03-0.227373675443D-11 0.000000000000D+00
    0.700000000000D+02 0.226250000000D+02 0.481198615282D-08-0.239725954719D+01
    0.111386179924D-05 0.994743756019D-02 0.661239027977D-05 0.515375121117D+04
    0.194400000000D+06-0.279396772385D-07 0.847745651666D+00-0.152736902237D-06
    0.956257015029D+00 0.250750000000D+03 0.254180235901D+00-0.803176312660D-08
   -0.124290891500D-09 0.100000000000D+01 0.215000000000D+04 0.000000000000D+00
    0.200000000000D+01 0.000000000000D+00-0.130385160446D-07 0.700000000000D+02
    0.189618000000D+06 0.400000000000D+01 0.000000000000D+00 0.000000000000D+00
32 21  3 23  6  0  0.0 0.215992331505D-04 0.454747350886D-12 0.000000000000D+00
    0.270000000000D+02-0.106250000000D+02 0.464340770228D-08 0.164860905647D+01
   -0.519677996635D-06 0.474744744133D-02 0.943243503571D-05 0.515365122604D+04
    0.194400000000D+06-0.931322574615D-07-0.231743366230D+00 0.782310962677D-07
    0.957593456525D+00 0.198968750000D+03-0.240614089066D+01-0.797247494272D-08
    0.193222334200D-09 0.100000000000D+01 0.215000000000D+04 0.000000000000D+00
    0.200000000000D+01 0.000000000000D+00 0.465661287308D-09 0.270000000000D+02
    0.187218000000D+06 0.400000000000D+01 0.000000000000D+00 0.000000000000D+00
23 21  3 23  6 14 40.0 0.116726849228D-03-0.125055521494D-11 0.000000000000D+00
    0.710000000000D+02-0.935625000000D+02 0.447161483213D-08-0.149682165780D+01
   -0.482238829136D-05 0.107036391273D-02 0.840984284878D-05 0.515365276337D+04
    0.195280000000D+06-0.223517417908D-07-0.129755595360D+01-0.465661287308D-07
    0.963252692210D+00 0.218718750000D+03 0.251370896298D+01-0.801283376669D-08
    0.250010413937D-10 0.100000000000D+01 0.215000000000D+04 0.000000000000D+00
    0.200000000000D+01 0.000000000000D+00-0.838190317154D-08 0.327000000000D+03
    0.190248000000D+06 0.400000000000D+01 0.000000000000D+00 0.000000000000D+00
16 21  3 23  7 59 44.0-0.298287719488D-03-0.579802872380D-11 0.000000000000D+00
    0.000000000000D+00 0.515000000000D+02 0.391266297812D-08 0.287877974542D+01
    0.250898301601D-05 0.122590196552D-01 0.885315239429D-05 0.515367289925D+04
    0.201584000000D+06-0.186264514923D-07 0.195998367803D+01-0.147148966789D-06
    0.974275469798D+00 0.215968750000D+03 0.666639736221D+00-0.758531595886D-08
   -0.350728894981D-09 0.100000000000D+01 0.215000000000D+04 0.000000000000D+00
    0.200000000000D+01 0.000000000000D+00-0.102445483208D-07 0.000000000000D+00
    0.198643000000D+06 0.400000000000D+01 0.000000000000D+00 0.000000000000D+00
27 21  3 23  7 59 44.0-0.992035493255D-04-0.704858393874D-11 0.000000000000D+00
    0.300000000000D+01 0.813125000000D+02 0.401945314064D-08 0.195453498113D+01
    0.412389636040D-05 0.927002436947D-02 0.649690628052D-05 0.515368443108D+04
    0.201584000000D+06-0.163912773132D-06 0.291653083507D+01 0.186264514923D-08
    0.976677724650D+00 0.262031250000D+03 0.592060825001D+00-0.799711882639D-08
    0.132862677121D-09 0.100000000000D+01 0.215000000000D+04 0.000000000000D+00
    0.200000000000D+01 0.000000000000D+00 0.186264514923D-08 0.300000000000D+01
    0.199993000000D+06 0.400000000000D+01 0.000000000000D+00 0.000000000000D+00
30 21  3 23  7 59 44.0-0.402442645282D-03-0.545696821064D-11 0.000000000000D+00
    0.100000000000D+01 0.180937500000D+02 0.527379110314D-08-0.925813875590D+00
    0.797212123871D-06 0.499063183088D-02 0.619143247604D-05 0.515372301674D+04
    0.201584000000D+06 0.115483999252D-06 0.849041169493D+00-0.540167093277D-07
    0.937152652261D+00 0.247375000000D+03-0.282807316444D+01-0.834499045949D-08
   -0.211794536378D-09 0.100000000000D+01 0.215000000000D+04 0.000000000000D+00
    0.200000000000D+01 0.000000000000D+00 0.372529029846D-08 0.100000000000D+01
    0.199968000000D+06 0.400000000000D+01 0.000000000000D+00 0.000000000000D+00
 1 21  3 23  8  0  0.0 0.734671019018D-03-0.909494701773D-11 0.000000000000D+00
    0.330000000000D+02-0.290625000000D+02 0.426839208138D-08-0.216867111740D+00
   -0.140815973282D-05 0.105734640965D-01 0.316835939884D-05 0.515368568039D+04
    0.201600000000D+06 0.149011611938D-07-0.231005251498D+01 0.156462192535D-06
    0.983599041705D+00 0.333562500000D+03 0.822417554089D+00-0.831284626341D-08
    0.108575951196D-09 0.100000000000D+01 0.215000000000D+04 0.000000000000D+00
    0.200000000000D+01 0.000000000000D+00 0.465661287308D-08 0.330000000000D+02
    0.194418000000D+06 0.400000000000D+01 0.000000000000D+00 0.000000000000D+00
 2 21  3 23  8  0  0.0-0.588796101511D-03-0.363797880709D-11 0.000000000000D+00
    0.520000000000D+02-0.164375000000D+02 0.469340978507D-08 0.350116116999D-01
   -0.110827386379D-05 0.203307424672D-01 0.380538403988D-05 0.515363765335D+04
    0.201600000000D+06-0.322237610817D-06-0.239251479622D+01-0.558793544769D-07
    0.962382898173D+00 0.308531250000D+03-0.153117277515D+01-0.865357474184D-08
    0.162506769059D-09 0.100000000000D+01 0.215000000000D+04 0.000000000000D+00
    0.200000000000D+01 0.000000000000D+00-0.176951289177D-07 0.520000000000D+02
    0.194418000000D+06 0.400000000000D+01 0.000000000000D+00 0.000000000000D+00
